STARLINK-32499          
1 61959U 24210A   26067.37553801  .00038184  00000+0  13881-2 0  9998
2 61959  43.0084 186.8514 0003092 269.5015  90.5482 15.27620371 74728
TEVEL2-1                
1 63217U 25052H   26068.64782323  .00020683  00000+0  70600-3 0  9994
2 63217  97.3991 324.7682 0004767 104.8919 255.2849 15.30341923 54855
